OBJECT_NAME,OBJECT_ID,EPOCH,MEAN_MOTION,ECCENTRICITY,INCLINATION,RA_OF_ASC_NODE,ARG_OF_PERICENTER,MEAN_ANOMALY,EPHEMERIS_TYPE,CLASSIFICATION_TYPE,NORAD_CAT_ID,ELEMENT_SET_NO,REV_AT_EPOCH,BSTAR,MEAN_MOTION_DOT,MEAN_MOTION_DDOT
SATELIOT_2,2024-149BU,2026-07-16T04:20:17.569824,14.96460509,.00015059,97.6823,271.6083,75.2139,284.9249,0,U,60534,999,10430,.42104464E-4,.421E-5,0
NIGHTJAR,2024-149BV,2026-07-16T03:51:53.134560,14.99173626,.00026831,97.6841,273.4616,94.3383,265.8147,0,U,60535,999,14721,.18569151E-3,.2201E-4,0
LEMUR-2-MARHISYAM,2024-149BW,2026-07-16T04:33:19.894176,15.11787785,.00023383,97.6879,280.2601,68.0137,292.1341,0,U,60536,999,10486,.3226253E-3,.5441E-4,0
SATELIOT_4,2024-149BX,2026-07-16T04:27:25.823520,14.96759675,.00009442,97.6729,271.1206,337.4261,22.6919,0,U,60537,999,10431,.31854933E-4,.307E-5,0
PICO-02A021,2024-149BY,2026-07-16T04:27:28.626336,15.03492308,.00037134,97.6737,275.7721,277.2422,82.8381,0,U,60538,999,10409,.14740479E-3,.1948E-4,0
ICEYE-X43,2024-149BZ,2026-07-16T04:27:21.017088,14.99787771,.00064585,97.6797,273.7616,343.3894,16.7117,0,U,60539,999,10446,.57760247E-4,.655E-5,0
HAWK-10A,2024-149CA,2026-07-16T04:30:03.157920,14.96592854,.00030026,97.6889,272.6007,358.9482,1.1732,0,U,60540,999,10432,.1641302E-4,.13E-5,0
UMBRA-09,2024-149CB,2026-07-16T04:39:26.936064,15.18868590,.00020698,97.6973,284.9133,200.1569,159.9583,0,U,60541,999,10512,.42666317E-3,.8827E-4,0
QPS-SAR-8 (AMATERU-IV),2024-149CC,2026-07-16T04:42:02.163168,15.04399205,.00035964,97.6657,276.1065,41.3590,318.7908,0,U,60542,999,10463,.13256957E-3,.179E-4,0
ARCTIC WEATHER SATELLITE,2024-149CD,2026-07-16T04:02:59.153280,14.89804266,.00027588,97.6791,266.8042,48.8806,311.2650,0,U,60543,999,10361,.36376942E-4,.296E-5,0
CAPELLA-15 (ACADIA-5),2024-149CE,2026-07-15T05:08:41.600832,14.92405560,.0003244,97.6759,268.4148,341.5394,18.5707,0,U,60544,999,10403,.23867E-3,.2389E-4,0
HAWK-10B,2024-149CF,2026-07-16T04:29:51.389376,14.96591813,.00053423,97.6807,271.9264,10.8089,349.3246,0,U,60545,999,10432,.18638923E-4,.155E-5,0
ICEYE-X39,2024-149CG,2026-07-16T03:53:18.759552,15.00077171,.00069199,97.6790,273.7955,43.9977,316.1796,0,U,60546,999,10446,.18243618E-3,.2215E-4,0
UMBRA-10,2024-149CH,2026-07-16T04:38:47.631840,15.18867080,.00016907,97.6979,284.9427,165.4264,194.7019,0,U,60547,999,10513,.41673228E-3,.862E-4,0
ICEYE-X33,2024-149CJ,2026-07-16T05:40:36.822720,15.00890200,.00019032,97.7368,276.2322,73.9344,286.2090,0,U,60548,999,10456,.20683847E-3,.2572E-4,0
ICEYE-X40,2024-149CK,2026-07-15T03:46:08.983488,14.98070105,.00039977,97.6795,272.2031,6.4770,353.6503,0,U,60549,999,10426,.12620525E-3,.1435E-4,0
SATELIOT_1,2024-149CL,2026-07-16T05:08:58.618176,14.98164982,.00055274,97.6733,272.6295,349.7061,10.4047,0,U,60550,999,10441,.99371004E-4,.112E-4,0
BRO-14,2024-149CM,2026-07-16T03:40:27.637824,14.96237724,.00066551,97.6864,272.4099,15.2569,344.8852,0,U,60551,999,10432,.90684063E-4,.966E-5,0
SATELIOT_3,2024-149CN,2026-07-16T04:34:17.599008,14.98164460,.00049511,97.6816,273.4254,0.5766,359.5461,0,U,60552,999,10442,.32435098E-4,.327E-5,0
BRO-15,2024-149CP,2026-07-16T04:51:50.570496,14.96222051,.00076783,97.6790,272.0334,1.2178,358.9061,0,U,60553,999,10434,.30614208E-4,.288E-5,0
UM5-RIBAT,2024-149CQ,2026-07-16T03:13:53.914656,15.01220224,.00006154,97.6605,274.5423,343.3311,16.7893,0,U,60554,999,10453,.91573058E-4,.1116E-4,0
UM5-EOSAT,2024-149CR,2026-07-16T03:47:56.544576,15.01732134,.00090924,97.6777,275.5703,33.0090,327.1700,0,U,60555,999,10456,.14262625E-3,.1797E-4,0
KANYINI,2024-149CS,2026-07-16T06:03:11.172960,15.54990653,.00041866,97.3722,284.9741,143.4221,216.7320,0,U,60556,999,10702,.36495904E-3,.24404E-3,0
FLOCK 4BE-5,2024-149CV,2026-07-16T04:32:11.526720,15.41060877,.00041429,97.3840,281.4834,168.1835,191.9510,0,U,60559,999,10674,.22276939E-3,.9121E-4,0
FLOCK 4BE-3,2024-149CX,2026-07-16T05:14:52.177344,15.42414119,.00051902,97.3693,281.4249,165.8557,194.2837,0,U,60561,999,10681,.22044792E-3,.9444E-4,0
HYPERFIELD-1A,2024-149CY,2026-07-16T03:58:47.661888,15.31346672,.0004903,97.3796,277.1868,187.6130,172.5037,0,U,60562,999,10647,.11051226E-3,.3269E-4,0
FLOCK 4BE-19,2024-149CZ,2026-07-16T04:56:37.375296,15.45681082,.00061111,97.3745,283.1013,172.0474,188.0873,0,U,60563,999,10690,.31078112E-3,.14924E-3,0
PTD-4 (LISA-T),2024-149DB,2026-07-16T04:28:48.957600,15.23149480,.00014487,97.6975,286.7720,274.5931,85.5139,0,U,60565,999,10523,.47623431E-3,.11181E-3,0
ION SCV-012,2024-149DK,2026-07-16T05:13:46.094304,14.94991290,.00031585,97.6769,270.6265,14.5095,345.6216,0,U,60573,999,10425,.86475706E-4,.889E-5,0
GNOMES-5,2024-149DL,2026-07-16T03:47:26.450592,15.01430572,.00089835,97.7150,275.0423,38.1377,322.0481,0,U,60574,999,10450,.1649204E-3,.207E-4,0
HAWK-10C,2024-149DM,2026-07-16T04:30:20.621952,14.96590392,.00025716,97.6725,271.2358,344.5596,15.5547,0,U,60575,999,10432,.20904453E-4,.181E-5,0
LEMUR-2-AHMED-ASRAR,2024-149DN,2026-07-16T04:41:15.406080,15.13317903,.00012935,97.7004,282.4729,203.7256,156.3916,0,U,60576,999,10495,.34500208E-3,.6078E-4,0
LEMUR-2-LLOYD,2024-149DP,2026-07-16T05:01:03.435456,15.09760819,.00047335,97.6745,278.3629,70.1548,290.0190,0,U,60577,999,10477,.27902029E-3,.444E-4,0
LEMUR-2-SQUIRRELCOMM,2024-149DQ,2026-07-16T04:46:53.244768,15.07450971,.00040459,97.6708,278.0240,322.9708,37.1239,0,U,60578,999,10477,.14008842E-3,.206E-4,0
LEMUR-2-SIERRINI,2024-149DR,2026-07-16T05:15:10.977984,15.11524285,.00064744,97.6842,279.9499,87.8684,272.3287,0,U,60579,999,10484,.31295734E-3,.5239E-4,0
SEDNA-1,2024-149DS,2026-07-16T03:41:01.773600,15.07370806,.00076667,97.6635,277.5063,242.0651,117.9801,0,U,60580,999,10475,.2132483E-3,.3163E-4,0
STARLINK-31844,2024-150A,2026-07-15T22:32:23.672832,15.31703615,.000131,53.1600,70.1371,76.7904,283.3244,0,U,60583,999,10769,.25166E-4,.416E-5,0
STARLINK-32204,2024-150B,2026-07-15T21:48:24.971904,15.34377222,.0001039,53.1596,69.2328,102.8107,257.3012,0,U,60584,999,10770,.34873E-4,.802E-5,0
STARLINK-32130,2024-150C,2026-07-16T01:40:24.117312,15.30199517,.00012692,53.1599,70.9468,94.3396,265.7750,0,U,60585,999,10761,.42554028E-4,.901E-5,0
STARLINK-32173,2024-150D,2026-07-15T22:33:43.781184,15.34409968,.0001697,53.1592,68.7257,123.0406,237.0760,0,U,60586,999,10771,.98707E-4,.2961E-4,0
STARLINK-31911,2024-150E,2026-07-16T00:49:57.117504,15.34386398,.00014446,53.1598,68.6035,78.3919,281.7246,0,U,60587,999,10764,.11275016E-4,.4E-7,0
STARLINK-31994,2024-150F,2026-07-15T22:24:38.407104,15.34389219,.0001127,53.1594,68.6848,105.3373,254.7755,0,U,60588,999,10763,.36527E-4,.858E-5,0
STARLINK-32169,2024-150G,2026-07-15T22:49:01.171200,15.30191577,.0001273,53.1602,71.6287,101.0040,259.1104,0,U,60589,999,10767,.15658E-4,.104E-5,0
STARLINK-32209,2024-150H,2026-07-15T22:42:49.653792,15.34382953,.0001599,53.1617,68.7628,90.9138,269.2047,0,U,60590,999,10771,.1478E-4,.123E-5,0
STARLINK-32170,2024-150J,2026-07-16T01:49:31.568448,15.30193905,.00012541,53.1605,70.9864,85.4855,274.6289,0,U,60591,999,10761,.7943928E-5,-.124E-5,0
STARLINK-31497,2024-150K,2026-07-15T23:04:01.838496,15.34385102,.00014074,53.1600,68.8573,79.9693,280.1468,0,U,60592,999,10771,.1882155E-4,.259E-5,0
STARLINK-32161,2024-150L,2026-07-15T21:27:12.375072,15.34383298,.0001422,53.1602,69.1446,102.2602,257.8560,0,U,60593,999,10762,.19954E-4,.298E-5,0
STARLINK-32210,2024-150M,2026-07-16T01:11:09.203712,15.34386068,.00012062,53.1601,68.6934,88.0835,272.0305,0,U,60594,999,10772,.262293E-5,-.288E-5,0
STARLINK-32202,2024-150N,2026-07-15T21:26:25.287072,15.31701833,.0001365,53.1596,71.2734,94.2257,265.8901,0,U,60595,999,10767,.5842E-4,.1448E-4,0
STARLINK-31930,2024-150P,2026-07-16T01:02:03.774336,15.34385627,.00014732,53.1603,68.6548,84.3280,275.7890,0,U,60596,999,10764,.40371491E-4,.987E-5,0
STARLINK-32162,2024-150Q,2026-07-15T22:45:58.836096,15.30190332,.0001353,53.1588,71.6159,92.7572,267.3583,0,U,60597,999,10767,.13671E-4,.46E-6,0
STARLINK-32208,2024-150R,2026-07-16T01:58:38.714592,15.30191833,.00013377,53.1610,71.0253,101.4067,258.7084,0,U,60598,999,10769,.5346407E-5,-.201E-5,0
STARLINK-32165,2024-150S,2026-07-16T01:44:58.652448,15.30181953,.00013251,53.1599,70.9703,102.2909,257.8240,0,U,60599,999,10769,-.10919991E-4,-.682E-5,0
STARLINK-31923,2024-150T,2026-07-16T01:29:46.062816,15.30189263,.00014967,53.1606,70.8990,84.6668,275.4503,0,U,60600,999,10769,.91044787E-4,.2337E-4,0
STARLINK-31988,2024-150U,2026-07-16T00:59:01.917888,15.34390033,.00013177,53.1595,68.6395,78.7096,281.4054,0,U,60601,999,10764,.96957406E-4,.29E-4,0
STARLINK-31983,2024-150V,2026-07-16T00:25:42.144960,15.34389509,.00014556,53.1609,68.4970,96.9705,263.1463,0,U,60602,999,10764,.43395313E-4,.109E-4,0
STARLINK-31874,2024-150W,2026-07-16T00:46:53.906304,15.34403729,.00012334,53.1569,68.5891,94.5157,265.5987,0,U,60603,999,10772,.22231787E-3,.7143E-4,0
STARLINK-32039,2024-150X,2026-07-16T00:57:15.614784,15.30192237,.00012467,53.1600,73.6024,93.6835,266.4308,0,U,60604,999,10765,.8507685E-5,-.107E-5,0
ZHONGXING-4A,2024-151A,2026-07-15T12:43:07.967712,1.00267142,.0000406,1.2426,270.4906,296.2264,35.6107,0,U,60606,999,703,0,-.372E-5,0
STARLINK-11247 [DTC],2024-152A,2026-07-16T04:37:34.014720,15.69715467,.00008934,53.1594,203.0987,64.4798,295.6312,0,U,60720,999,10901,-.5321532E-5,-.1233E-4,0
STARLINK-11259 [DTC],2024-152B,2026-07-16T04:30:30.046464,15.69715770,.00010465,53.1587,203.0662,58.7409,301.3711,0,U,60721,999,10901,.763943E-5,.337E-5,0
STARLINK-11188 [DTC],2024-152C,2026-07-16T07:26:49.068960,15.69702489,.00011196,53.1601,202.4086,77.8383,282.2760,0,U,60722,999,10915,-.10687998E-4,-.1883E-4,0
STARLINK-11272 [DTC],2024-152D,2026-07-16T04:09:18.510624,15.69717394,.00011779,53.1603,202.9692,67.1585,292.9557,0,U,60723,999,10901,.8338778E-5,.422E-5,0
STARLINK-11261 [DTC],2024-152E,2026-07-16T04:16:23.244384,15.69694444,.00009017,53.1595,203.0002,62.4091,297.7018,0,U,60724,999,10901,-.2602263E-5,-.903E-5,0
